{
  "type": "FeatureCollection",
  "features": [
    {
      "type": "Feature",
      "properties": {
        "norad_id": 34350,
        "name": "IRIDIUM 33 DEB",
        "group": "iridium-33-debris",
        "lat": 86.32412311788336,
        "lon": 98.41900618918059,
        "alt_km": 728.8573075494141,
        "timestamp": "2025-12-03T19:33:07.362379+00:00",
        "meta_object_name": "IRIDIUM 33 DEB",
        "meta_object_id": "1997-051ES",
        "meta_epoch": "2025-12-03T02:46:10.970400",
        "meta_mean_motion": 14.45350997,
        "meta_eccentricity": 0.00218335,
        "meta_inclination": 86.3282,
        "meta_ra_of_asc_node": 6.9833,
        "meta_arg_of_pericenter": 165.5973,
        "meta_mean_anomaly": 248.6185,
        "meta_ephemeris_type": 0,
        "meta_classification_type": "U",
        "meta_norad_cat_id": 34350,
        "meta_element_set_no": 999,
        "meta_rev_at_epoch": 88154,
        "meta_bstar": 0.00041343011,
        "meta_mean_motion_dot": 1.476e-05,
        "meta_mean_motion_ddot": 0,
        "tle_line1": "1 34350U 97051ES  25337.11540475  .00001476  00000+0  41343-3 0  9999",
        "tle_line2": "2 34350  86.3282   6.9833 0021833 165.5973 248.6185 14.45350997881545"
      },
      "geometry": {
        "type": "Point",
        "coordinates": [
          98.41900618918059,
          86.32412311788336
        ]
      }
    },
    {
      "type": "Feature",
      "properties": {
        "norad_id": 34366,
        "name": "IRIDIUM 33 DEB",
        "group": "iridium-33-debris",
        "lat": 38.28880602079642,
        "lon": -129.6776925273487,
        "alt_km": 696.3769023050836,
        "timestamp": "2025-12-03T19:33:07.362389+00:00",
        "meta_object_name": "IRIDIUM 33 DEB",
        "meta_object_id": "1997-051FJ",
        "meta_epoch": "2025-12-03T05:56:14.838144",
        "meta_mean_motion": 14.53909493,
        "meta_eccentricity": 0.0021716,
        "meta_inclination": 86.371,
        "meta_ra_of_asc_node": 53.4406,
        "meta_arg_of_pericenter": 170.2088,
        "meta_mean_anomaly": 244.1794,
        "meta_ephemeris_type": 0,
        "meta_classification_type": "U",
        "meta_norad_cat_id": 34366,
        "meta_element_set_no": 999,
        "meta_rev_at_epoch": 88044,
        "meta_bstar": 0.0017347,
        "meta_mean_motion_dot": 7.341e-05,
        "meta_mean_motion_ddot": 0,
        "tle_line1": "1 34366U 97051FJ  25337.24739396  .00007341  00000+0  17347-2 0  9995",
        "tle_line2": "2 34366  86.3710  53.4406 0021716 170.2088 244.1794 14.53909493880446"
      },
      "geometry": {
        "type": "Point",
        "coordinates": [
          -129.6776925273487,
          38.28880602079642
        ]
      }
    },
    {
      "type": "Feature",
      "properties": {
        "norad_id": 34375,
        "name": "IRIDIUM 33 DEB",
        "group": "iridium-33-debris",
        "lat": 47.96993675222561,
        "lon": 2.325624832106561,
        "alt_km": 759.8791189285475,
        "timestamp": "2025-12-03T19:33:07.362399+00:00",
        "meta_object_name": "IRIDIUM 33 DEB",
        "meta_object_id": "1997-051FT",
        "meta_epoch": "2025-12-03T01:02:45.120192",
        "meta_mean_motion": 14.17964565,
        "meta_eccentricity": 0.01024686,
        "meta_inclination": 86.4333,
        "meta_ra_of_asc_node": 186.6042,
        "meta_arg_of_pericenter": 157.2608,
        "meta_mean_anomaly": 1.3107,
        "meta_ephemeris_type": 0,
        "meta_classification_type": "U",
        "meta_norad_cat_id": 34375,
        "meta_element_set_no": 999,
        "meta_rev_at_epoch": 86574,
        "meta_bstar": 0.00052219187,
        "meta_mean_motion_dot": 1.144e-05,
        "meta_mean_motion_ddot": 0,
        "tle_line1": "1 34375U 97051FT  25337.04357778  .00001144  00000+0  52219-3 0  9996",
        "tle_line2": "2 34375  86.4333 186.6042 0102468 157.2608   1.3107 14.17964565865748"
      },
      "geometry": {
        "type": "Point",
        "coordinates": [
          2.325624832106561,
          47.96993675222561
        ]
      }
    },
    {
      "type": "Feature",
      "properties": {
        "norad_id": 34376,
        "name": "IRIDIUM 33 DEB",
        "group": "iridium-33-debris",
        "lat": 22.777710185491166,
        "lon": -171.00490489343423,
        "alt_km": 671.2043713756375,
        "timestamp": "2025-12-03T19:33:07.362409+00:00",
        "meta_object_name": "IRIDIUM 33 DEB",
        "meta_object_id": "1997-051FU",
        "meta_epoch": "2025-12-03T08:58:52.417920",
        "meta_mean_motion": 14.62344728,
        "meta_eccentricity": 0.0026089,
        "meta_inclination": 86.2996,
        "meta_ra_of_asc_node": 10.7501,
        "meta_arg_of_pericenter": 198.7208,
        "meta_mean_anomaly": 161.3047,
        "meta_ephemeris_type": 0,
        "meta_classification_type": "U",
        "meta_norad_cat_id": 34376,
        "meta_element_set_no": 999,
        "meta_rev_at_epoch": 87870,
        "meta_bstar": 0.0019889,
        "meta_mean_motion_dot": 0.00010121,
        "meta_mean_motion_ddot": 0,
        "tle_line1": "1 34376U 97051FU  25337.37421780  .00010121  00000+0  19889-2 0  9998",
        "tle_line2": "2 34376  86.2996  10.7501 0026089 198.7208 161.3047 14.62344728878702"
      },
      "geometry": {
        "type": "Point",
        "coordinates": [
          -171.00490489343423,
          22.777710185491166
        ]
      }
    },
    {
      "type": "Feature",
      "properties": {
        "norad_id": 34486,
        "name": "IRIDIUM 33 DEB",
        "group": "iridium-33-debris",
        "lat": 34.27562622390731,
        "lon": 18.605616554503367,
        "alt_km": 582.5783240423852,
        "timestamp": "2025-12-03T19:33:07.362420+00:00",
        "meta_object_name": "IRIDIUM 33 DEB",
        "meta_object_id": "1997-051GB",
        "meta_epoch": "2025-12-03T10:02:24.253728",
        "meta_mean_motion": 14.95105578,
        "meta_eccentricity": 0.0012925,
        "meta_inclination": 86.3945,
        "meta_ra_of_asc_node": 16.3253,
        "meta_arg_of_pericenter": 143.3156,
        "meta_mean_anomaly": 279.4709,
        "meta_ephemeris_type": 0,
        "meta_classification_type": "U",
        "meta_norad_cat_id": 34486,
        "meta_element_set_no": 999,
        "meta_rev_at_epoch": 88847,
        "meta_bstar": 0.0028184,
        "meta_mean_motion_dot": 0.00031064,
        "meta_mean_motion_ddot": 0,
        "tle_line1": "1 34486U 97051GB  25337.41833627  .00031064  00000+0  28184-2 0  9999",
        "tle_line2": "2 34486  86.3945  16.3253 0012925 143.3156 279.4709 14.95105578888472"
      },
      "geometry": {
        "type": "Point",
        "coordinates": [
          18.605616554503367,
          34.27562622390731
        ]
      }
    },
    {
      "type": "Feature",
      "properties": {
        "norad_id": 34487,
        "name": "IRIDIUM 33 DEB",
        "group": "iridium-33-debris",
        "lat": -72.21359314265581,
        "lon": 4.7242992074024786,
        "alt_km": 770.1687423510521,
        "timestamp": "2025-12-03T19:33:07.362430+00:00",
        "meta_object_name": "IRIDIUM 33 DEB",
        "meta_object_id": "1997-051GC",
        "meta_epoch": "2025-12-03T10:12:00.081216",
        "meta_mean_motion": 14.43196495,
        "meta_eccentricity": 0.0031908,
        "meta_inclination": 86.3443,
        "meta_ra_of_asc_node": 16.3873,
        "meta_arg_of_pericenter": 157.9365,
        "meta_mean_anomaly": 266.0119,
        "meta_ephemeris_type": 0,
        "meta_classification_type": "U",
        "meta_norad_cat_id": 34487,
        "meta_element_set_no": 999,
        "meta_rev_at_epoch": 88114,
        "meta_bstar": 0.00029137,
        "meta_mean_motion_dot": 1.005e-05,
        "meta_mean_motion_ddot": 0,
        "tle_line1": "1 34487U 97051GC  25337.42500094  .00001005  00000+0  29137-3 0  9992",
        "tle_line2": "2 34487  86.3443  16.3873 0031908 157.9365 266.0119 14.43196495881144"
      },
      "geometry": {
        "type": "Point",
        "coordinates": [
          4.7242992074024786,
          -72.21359314265581
        ]
      }
    },
    {
      "type": "Feature",
      "properties": {
        "norad_id": 34488,
        "name": "IRIDIUM 33 DEB",
        "group": "iridium-33-debris",
        "lat": 60.306806688418774,
        "lon": -43.303818245244045,
        "alt_km": 470.7954883461889,
        "timestamp": "2025-12-03T19:33:07.362440+00:00",
        "meta_object_name": "IRIDIUM 33 DEB",
        "meta_object_id": "1997-051GD",
        "meta_epoch": "2025-12-02T22:49:46.136352",
        "meta_mean_motion": 15.25923999,
        "meta_eccentricity": 0.00156738,
        "meta_inclination": 86.3246,
        "meta_ra_of_asc_node": 310.649,
        "meta_arg_of_pericenter": 66.3953,
        "meta_mean_anomaly": 293.8937,
        "meta_ephemeris_type": 0,
        "meta_classification_type": "U",
        "meta_norad_cat_id": 34488,
        "meta_element_set_no": 999,
        "meta_rev_at_epoch": 89090,
        "meta_bstar": 0.0055589984,
        "meta_mean_motion_dot": 0.0014559,
        "meta_mean_motion_ddot": 0,
        "tle_line1": "1 34488U 97051GD  25336.95122843  .00145590  00000+0  55590-2 0  9991",
        "tle_line2": "2 34488  86.3246 310.6490 0015673  66.3953 293.8937 15.25923999890906"
      },
      "geometry": {
        "type": "Point",
        "coordinates": [
          -43.303818245244045,
          60.306806688418774
        ]
      }
    }
  ]
}